start=new Date('2021-10-28T00:00:00.000Z').valueOf();
sats=[{"TLE_LINE2":"2 46148  53.0534 252.7945 0001629  74.0201 286.0968 15.06389997 66739","PERIOD":"95.593","OBJECT_ID":"2020-057AH","SEMIMAJOR_AXIS":"6925.379","TIME_SYSTEM":"UTC","EPHEMERIS_TYPE":"0","INCLINATION":"53.0534","ECCENTRICITY":"0.00016290","OBJECT_NAME":"STARLINK-1616","MEAN_MOTION":"15.06389997","MEAN_MOTION_DOT":"0.00000327","ELEMENT_SET_NO":"999","REV_AT_EPOCH":"6673","PERIAPSIS":"546.116","BSTAR":"0.00004085800000","EPOCH":"2021-10-27T14:13:04.754496","OBJECT_TYPE":"PAYLOAD","GP_ID":"188275017","FILE":"3187215","MEAN_MOTION_DDOT":"0.0000000000000","SITE":"AFETR","CLASSIFICATION_TYPE":"U","DECAY_DATE":null,"MEAN_ANOMALY":"286.0968","APOAPSIS":"548.372","TLE_LINE1":"1 46148U 20057AH  21300.59241614  .00000327  00000-0  40858-4 0  9996","RCS_SIZE":"LARGE","RA_OF_ASC_NODE":"252.7945","COUNTRY_CODE":"US","NORAD_CAT_ID":"46148","CENTER_NAME":"EARTH","MEAN_ELEMENT_THEORY":"SGP4","LAUNCH_DATE":"2020-08-18","REF_FRAME":"TEME","ARG_OF_PERICENTER":"74.0201"},{"RCS_SIZE":"LARGE","COUNTRY_CODE":"US","RA_OF_ASC_NODE":"254.2287","NORAD_CAT_ID":"46149","CENTER_NAME":"EARTH","MEAN_ELEMENT_THEORY":"SGP4","REF_FRAME":"TEME","LAUNCH_DATE":"2020-08-18","ARG_OF_PERICENTER":"70.2480","SITE":"AFETR","MEAN_MOTION_DDOT":"0.0000000000000","MEAN_ANOMALY":"289.8690","DECAY_DATE":null,"CLASSIFICATION_TYPE":"U","APOAPSIS":"548.392","TLE_LINE1":"1 46149U 20057AJ  21300.27542088  .00000416  00000-0  46860-4 0  9999","PERIAPSIS":"546.063","REV_AT_EPOCH":"6730","OBJECT_TYPE":"PAYLOAD","EPOCH":"2021-10-27T06:36:36.364032","BSTAR":"0.00004686000000","GP_ID":"188272006","FILE":"3187107","PERIOD":"95.592","TLE_LINE2":"2 46149  53.0547 254.2287 0001681  70.2480 289.8690 15.06395465 67309","SEMIMAJOR_AXIS":"6925.362","OBJECT_ID":"2020-057AJ","TIME_SYSTEM":"UTC","EPHEMERIS_TYPE":"0","INCLINATION":"53.0547","OBJECT_NAME":"STARLINK-1620","ECCENTRICITY":"0.00016810","MEAN_MOTION_DOT":"0.00000416","ELEMENT_SET_NO":"999","MEAN_MOTION":"15.06395465"},{"ARG_OF_PERICENTER":"75.3278","MEAN_ELEMENT_THEORY":"SGP4","REF_FRAME":"TEME","LAUNCH_DATE":"2020-08-18","NORAD_CAT_ID":"46150","CENTER_NAME":"EARTH","RCS_SIZE":"LARGE","RA_OF_ASC_NODE":"273.9445","COUNTRY_CODE":"US","APOAPSIS":"548.300","TLE_LINE1":"1 46150U 20057AK  21300.33623647  .00000294  00000-0  38637-4 0  9996","MEAN_ANOMALY":"284.7884","CLASSIFICATION_TYPE":"U","DECAY_DATE":null,"SITE":"AFETR","MEAN_MOTION_DDOT":"0.0000000000000","GP_ID":"188272758","FILE":"3187107","PERIAPSIS":"546.141","REV_AT_EPOCH":"6576","EPOCH":"2021-10-27T08:04:10.831008","OBJECT_TYPE":"PAYLOAD","BSTAR":"0.00003863700000","OBJECT_NAME":"STARLINK-1629","ECCENTRICITY":"0.00015590","ELEMENT_SET_NO":"999","MEAN_MOTION_DOT":"0.00000294","MEAN_MOTION":"15.06397676","INCLINATION":"53.0543","EPHEMERIS_TYPE":"0","TIME_SYSTEM":"UTC","PERIOD":"95.592","TLE_LINE2":"2 46150  53.0543 273.9445 0001559  75.3278 284.7884 15.06397676 65769","SEMIMAJOR_AXIS":"6925.356","OBJECT_ID":"2020-057AK"},{"ARG_OF_PERICENTER":"71.5440","MEAN_ELEMENT_THEORY":"SGP4","REF_FRAME":"TEME","LAUNCH_DATE":"2020-08-18","NORAD_CAT_ID":"46151","CENTER_NAME":"EARTH","RCS_SIZE":"LARGE","RA_OF_ASC_NODE":"254.6609","COUNTRY_CODE":"US","APOAPSIS":"548.297","TLE_LINE1":"1 46151U 20057AL  21300.17958570  .00000253  00000-0  35896-4 0  9994","MEAN_ANOMALY":"288.5716","DECAY_DATE":null,"CLASSIFICATION_TYPE":"U","SITE":"AFETR","MEAN_MOTION_DDOT":"0.0000000000000","GP_ID":"188273508","FILE":"3187107","PERIAPSIS":"546.162","REV_AT_EPOCH":"6601","OBJECT_TYPE":"PAYLOAD","EPOCH":"2021-10-27T04:18:36.204480","BSTAR":"0.00003589600000","OBJECT_NAME":"STARLINK-1631","ECCENTRICITY":"0.00015410","ELEMENT_SET_NO":"999","MEAN_MOTION_DOT":"0.00000253","MEAN_MOTION":"15.06394748","INCLINATION":"53.0538","EPHEMERIS_TYPE":"0","TIME_SYSTEM":"UTC","PERIOD":"95.592","TLE_LINE2":"2 46151  53.0538 254.6609 0001541  71.5440 288.5716 15.06394748 66014","SEMIMAJOR_AXIS":"6925.365","OBJECT_ID":"2020-057AL"},{"FILE":"3187107","GP_ID":"188272256","BSTAR":"-0.00008529400000","EPOCH":"2021-10-27T08:41:20.618880","OBJECT_TYPE":"PAYLOAD","PERIAPSIS":"546.138","REV_AT_EPOCH":"6576","MEAN_MOTION":"15.06396510","MEAN_MOTION_DOT":"-0.00001552","ELEMENT_SET_NO":"999","ECCENTRICITY":"0.00015690","OBJECT_NAME":"STARLINK-1634","INCLINATION":"53.0544","TIME_SYSTEM":"UTC","EPHEMERIS_TYPE":"0","OBJECT_ID":"2020-057AM","SEMIMAJOR_AXIS":"6925.359","TLE_LINE2":"2 46152  53.0544 273.8350 0001569  72.9406 287.1754 15.06396510 65762","PERIOD":"95.592","ARG_OF_PERICENTER":"72.9406","LAUNCH_DATE":"2020-08-18","REF_FRAME":"TEME","MEAN_ELEMENT_THEORY":"SGP4","NORAD_CAT_ID":"46152","CENTER_NAME":"EARTH","COUNTRY_CODE":"US","RA_OF_ASC_NODE":"273.8350","RCS_SIZE":"LARGE","TLE_LINE1":"1 46152U 20057AM  21300.36204420 -.00001552  00000-0 -85294-4 0  9996","APOAPSIS":"548.311","DECAY_DATE":null,"CLASSIFICATION_TYPE":"U","MEAN_ANOMALY":"287.1754","MEAN_MOTION_DDOT":"0.0000000000000","SITE":"AFETR"},{"RCS_SIZE":"LARGE","COUNTRY_CODE":"US","RA_OF_ASC_NODE":"254.2778","NORAD_CAT_ID":"46153","CENTER_NAME":"EARTH","MEAN_ELEMENT_THEORY":"SGP4","REF_FRAME":"TEME","LAUNCH_DATE":"2020-08-18","ARG_OF_PERICENTER":"70.0360","SITE":"AFETR","MEAN_MOTION_DDOT":"0.0000000000000","MEAN_ANOMALY":"290.0820","DECAY_DATE":null,"CLASSIFICATION_TYPE":"U","APOAPSIS":"548.430","TLE_LINE1":"1 46153U 20057AN  21300.26436034  .00001076  00000-0  91097-4 0  9991","REV_AT_EPOCH":"6602","PERIAPSIS":"545.976","EPOCH":"2021-10-27T06:20:40.733376","OBJECT_TYPE":"PAYLOAD","BSTAR":"0.00009109700000","GP_ID":"188272506","FILE":"3187107","PERIOD":"95.592","TLE_LINE2":"2 46153  53.0547 254.2778 0001772  70.0360 290.0820 15.06403394 66023","SEMIMAJOR_AXIS":"6925.338","OBJECT_ID":"2020-057AN","TIME_SYSTEM":"UTC","EPHEMERIS_TYPE":"0","INCLINATION":"53.0547","ECCENTRICITY":"0.00017720","OBJECT_NAME":"STARLINK-1636","MEAN_MOTION_DOT":"0.00001076","ELEMENT_SET_NO":"999","MEAN_MOTION":"15.06403394"},{"TLE_LINE1":"1 46154U 20057AP  21300.67257792 -.00000067  00000-0  14395-4 0  9995","APOAPSIS":"548.344","SITE":"AFETR","MEAN_MOTION_DDOT":"0.0000000000000","MEAN_ANOMALY":"282.4975","DECAY_DATE":null,"CLASSIFICATION_TYPE":"U","REF_FRAME":"TEME","LAUNCH_DATE":"2020-08-18","MEAN_ELEMENT_THEORY":"SGP4","ARG_OF_PERICENTER":"77.6202","COUNTRY_CODE":"US","RA_OF_ASC_NODE":"262.4438","RCS_SIZE":"LARGE","NORAD_CAT_ID":"46154","CENTER_NAME":"EARTH","INCLINATION":"53.0548","MEAN_MOTION_DOT":"-0.00000067","ELEMENT_SET_NO":"999","MEAN_MOTION":"15.06409952","ECCENTRICITY":"0.00016770","OBJECT_NAME":"STARLINK-1642","SEMIMAJOR_AXIS":"6925.318","OBJECT_ID":"2020-057AP","PERIOD":"95.592","TLE_LINE2":"2 46154  53.0548 262.4438 0001677  77.6202 282.4975 15.06409952 66607","EPHEMERIS_TYPE":"0","TIME_SYSTEM":"UTC","FILE":"3187242","GP_ID":"188275229","OBJECT_TYPE":"PAYLOAD","EPOCH":"2021-10-27T16:08:30.732288","BSTAR":"0.00001439500000","PERIAPSIS":"546.022","REV_AT_EPOCH":"6660"},{"ARG_OF_PERICENTER":"72.5567","MEAN_ELEMENT_THEORY":"SGP4","LAUNCH_DATE":"2020-08-18","REF_FRAME":"TEME","CENTER_NAME":"EARTH","NORAD_CAT_ID":"46155","RCS_SIZE":"LARGE","COUNTRY_CODE":"US","RA_OF_ASC_NODE":"234.4178","APOAPSIS":"548.536","TLE_LINE1":"1 46155U 20057AQ  21300.23303073  .00000735  00000-0  68248-4 0  9999","CLASSIFICATION_TYPE":"U","DECAY_DATE":null,"MEAN_ANOMALY":"287.5629","MEAN_MOTION_DDOT":"0.0000000000000","SITE":"AFETR","GP_ID":"188273009","FILE":"3187107","REV_AT_EPOCH":"6754","PERIAPSIS":"545.904","BSTAR":"0.00006824800000","EPOCH":"2021-10-27T05:35:33.855072","OBJECT_TYPE":"PAYLOAD","OBJECT_NAME":"STARLINK-1667","ECCENTRICITY":"0.00019000","MEAN_MOTION":"15.06397946","MEAN_MOTION_DOT":"0.00000735","ELEMENT_SET_NO":"999","INCLINATION":"53.0534","TIME_SYSTEM":"UTC","EPHEMERIS_TYPE":"0","TLE_LINE2":"2 46155  53.0534 234.4178 0001900  72.5567 287.5629 15.06397946 67545","PERIOD":"95.592","OBJECT_ID":"2020-057AQ","SEMIMAJOR_AXIS":"6925.355"},{"APOAPSIS":"548.297","TLE_LINE1":"1 46156U 20057AR  21300.82093617  .00000236  00000-0  34755-4 0  9997","DECAY_DATE":null,"CLASSIFICATION_TYPE":"U","MEAN_ANOMALY":"288.4638","MEAN_MOTION_DDOT":"0.0000000000000","SITE":"AFETR","ARG_OF_PERICENTER":"71.6518","MEAN_ELEMENT_THEORY":"SGP4","LAUNCH_DATE":"2020-08-18","REF_FRAME":"TEME","NORAD_CAT_ID":"46156","CENTER_NAME":"EARTH","RCS_SIZE":"LARGE","COUNTRY_CODE":"US","RA_OF_ASC_NODE":"251.7791","OBJECT_NAME":"STARLINK-1545","ECCENTRICITY":"0.00015380","MEAN_MOTION":"15.06393999","ELEMENT_SET_NO":"999","MEAN_MOTION_DOT":"0.00000236","INCLINATION":"53.0533","EPHEMERIS_TYPE":"0","TIME_SYSTEM":"UTC","TLE_LINE2":"2 46156  53.0533 251.7791 0001538  71.6518 288.4638 15.06393999 66780","PERIOD":"95.593","OBJECT_ID":"2020-057AR","SEMIMAJOR_AXIS":"6925.367","GP_ID":"188287198","FILE":"3187745","PERIAPSIS":"546.167","REV_AT_EPOCH":"6678","BSTAR":"0.00003475500000","EPOCH":"2021-10-27T19:42:08.885088","OBJECT_TYPE":"PAYLOAD"},{"OBJECT_NAME":"STARLINK-1587","ECCENTRICITY":"0.00017540","MEAN_MOTION":"15.06393916","ELEMENT_SET_NO":"999","MEAN_MOTION_DOT":"0.00001029","INCLINATION":"53.0520","EPHEMERIS_TYPE":"0","TIME_SYSTEM":"UTC","TLE_LINE2":"2 46157  53.0520 233.0162 0001754  70.6003 289.5175 15.06393916 67014","PERIOD":"95.593","OBJECT_ID":"2020-057AS","SEMIMAJOR_AXIS":"6925.367","GP_ID":"188287166","FILE":"3187727","PERIAPSIS":"546.017","REV_AT_EPOCH":"6701","BSTAR":"0.00008798700000","OBJECT_TYPE":"PAYLOAD","EPOCH":"2021-10-27T13:01:25.045536","APOAPSIS":"548.447","TLE_LINE1":"1 46157U 20057AS  21300.54265099  .00001029  00000-0  87987-4 0  9998","CLASSIFICATION_TYPE":"U","DECAY_DATE":null,"MEAN_ANOMALY":"289.5175","MEAN_MOTION_DDOT":"0.0000000000000","SITE":"AFETR","ARG_OF_PERICENTER":"70.6003","MEAN_ELEMENT_THEORY":"SGP4","LAUNCH_DATE":"2020-08-18","REF_FRAME":"TEME","NORAD_CAT_ID":"46157","CENTER_NAME":"EARTH","RCS_SIZE":"LARGE","COUNTRY_CODE":"US","RA_OF_ASC_NODE":"233.0162"}];
